{
 "type": "FeatureCollection",
 "metadata": {
  "source": "OpenStreetMap contributors (ODbL), via Overpass API",
  "bbox": [
   12.96,
   77.58,
   13.0,
   77.64
  ],
  "feature_count": 50,
  "note": "Pre-fetched demo dataset. The running app reads this file instead of calling Overpass, so the demo works offline."
 },
 "features": [
  {
   "type": "Feature",
   "properties": {
    "osm_id": "way/1047676497",
    "name": null,
    "building_type": "commercial",
    "levels": 20,
    "height": null,
    "address": null
   },
   "geometry": {
    "type": "Polygon",
    "coordinates": [
     [
      [
       77.5903735,
       12.9673355
      ],
      [
       77.5905805,
       12.9674672
      ],
      [
       77.5907625,
       12.967586
      ],
      [
       77.5909122,
       12.9676039
      ],
      [
       77.5909547,
       12.9675762
      ],
      [
       77.5909705,
       12.967402
      ],
      [
       77.5909368,
       12.9673628
      ],
      [
       77.5904358,
       12.9672904
      ],
      [
       77.5904103,
       12.9673125
      ],
      [
       77.5903785,
       12.9673098
      ],
      [
       77.5903735,
       12.9673355
      ]
     ]
    ]
   }
  },
  {
   "type": "Feature",
   "properties": {
    "osm_id": "way/1064418715",
    "name": null,
    "building_type": "residential",
    "levels": 14,
    "height": null,
    "address": null
   },
   "geometry": {
    "type": "Polygon",
    "coordinates": [
     [
      [
       77.5963763,
       12.9845828
      ],
      [
       77.5959332,
       12.9847402
      ],
      [
       77.5960043,
       12.9849301
      ],
      [
       77.5962729,
       12.9848347
      ],
      [
       77.5962467,
       12.9847648
      ],
      [
       77.5964212,
       12.9847029
      ],
      [
       77.5963763,
       12.9845828
      ]
     ]
    ]
   }
  },
  {
   "type": "Feature",
   "properties": {
    "osm_id": "way/107240643",
    "name": null,
    "building_type": "commercial",
    "levels": 19,
    "height": 50.0,
    "address": null
   },
   "geometry": {
    "type": "Polygon",
    "coordinates": [
     [
      [
       77.594955,
       12.9719219
      ],
      [
       77.5947672,
       12.971999
      ],
      [
       77.5948155,
       12.9722355
      ],
      [
       77.5948047,
       12.9722376
      ],
      [
       77.5948332,
       12.9723777
      ],
      [
       77.5948197,
       12.9723803
      ],
      [
       77.594844,
       12.9724992
      ],
      [
       77.594833,
       12.9725013
      ],
      [
       77.5948605,
       12.9726245
      ],
      [
       77.5948736,
       12.9726217
      ],
      [
       77.5948812,
       12.9726558
      ],
      [
       77.5948706,
       12.9726746
      ],
      [
       77.594864,
       12.9727004
      ],
      [
       77.5948651,
       12.9727269
      ],
      [
       77.5948673,
       12.9727501
      ],
      [
       77.5948732,
       12.9727727
      ],
      [
       77.5948849,
       12.9727981
      ],
      [
       77.5949013,
       12.972821
      ],
      [
       77.5949111,
       12.9728311
      ],
      [
       77.5949241,
       12.9728367
      ],
      [
       77.5949396,
       12.9728366
      ],
      [
       77.5949536,
       12.9728302
      ],
      [
       77.5950944,
       12.9727217
      ],
      [
       77.5951128,
       12.9727191
      ],
      [
       77.5951482,
       12.9726921
      ],
      [
       77.595146,
       12.9726772
      ],
      [
       77.5953231,
       12.9726452
      ],
      [
       77.5953737,
       12.9725736
      ],
      [
       77.5953002,
       12.9721868
      ],
      [
       77.5952382,
       12.972198
      ],
      [
       77.5951996,
       12.9719947
      ],
      [
       77.5949764,
       12.9720349
      ],
      [
       77.594955,
       12.9719219
      ]
     ]
    ]
   }
  },
  {
   "type": "Feature",
   "properties": {
    "osm_id": "way/1113115281",
    "name": null,
    "building_type": "commercial",
    "levels": 15,
    "height": 59.0,
    "address": null
   },
   "geometry": {
    "type": "Polygon",
    "coordinates": [
     [
      [
       77.5964067,
       12.982108
      ],
      [
       77.5963953,
       12.9820722
      ],
      [
       77.596262,
       12.9818657
      ],
      [
       77.5961577,
       12.9817739
      ],
      [
       77.5959131,
       12.9818508
      ],
      [
       77.5959903,
       12.9820839
      ],
      [
       77.596036,
       12.9822218
      ],
      [
       77.5961926,
       12.9821737
      ],
      [
       77.5964067,
       12.982108
      ]
     ]
    ]
   }
  },
  {
   "type": "Feature",
   "properties": {
    "osm_id": "way/1114967994",
    "name": null,
    "building_type": "mixed",
    "levels": 29,
    "height": 100.0,
    "address": null
   },
   "geometry": {
    "type": "Polygon",
    "coordinates": [
     [
      [
       77.5855302,
       12.9931858
      ],
      [
       77.5857818,
       12.9932104
      ],
      [
       77.5858003,
       12.9930318
      ],
      [
       77.5855487,
       12.9930072
      ],
      [
       77.5855302,
       12.9931858
      ]
     ]
    ]
   }
  },
  {
   "type": "Feature",
   "properties": {
    "osm_id": "way/1114967995",
    "name": null,
    "building_type": "mixed",
    "levels": 27,
    "height": null,
    "address": null
   },
   "geometry": {
    "type": "Polygon",
    "coordinates": [
     [
      [
       77.5940274,
       12.9857385
      ],
      [
       77.5941339,
       12.9856927
      ],
      [
       77.5941448,
       12.9857169
      ],
      [
       77.5941625,
       12.9857093
      ],
      [
       77.5942074,
       12.98569
      ],
      [
       77.5943402,
       12.9859834
      ],
      [
       77.5942863,
       12.9860066
      ],
      [
       77.5943062,
       12.9860505
      ],
      [
       77.5943188,
       12.9860783
      ],
      [
       77.5942564,
       12.9861051
      ],
      [
       77.5942972,
       12.9861953
      ],
      [
       77.5943006,
       12.9862017
      ],
      [
       77.5943015,
       12.9862089
      ],
      [
       77.5942972,
       12.98622
      ],
      [
       77.5941077,
       12.986305
      ],
      [
       77.594096,
       12.9863051
      ],
      [
       77.5940846,
       12.9863024
      ],
      [
       77.5940715,
       12.9862949
      ],
      [
       77.5940615,
       12.9862837
      ],
      [
       77.5939629,
       12.9860655
      ],
      [
       77.5939615,
       12.9860417
      ],
      [
       77.5939656,
       12.9860181
      ],
      [
       77.5939731,
       12.9859996
      ],
      [
       77.593984,
       12.9859828
      ],
      [
       77.5941124,
       12.9859204
      ],
      [
       77.5940779,
       12.9858467
      ],
      [
       77.5940274,
       12.9857385
      ]
     ]
    ]
   }
  },
  {
   "type": "Feature",
   "properties": {
    "osm_id": "way/1125334910",
    "name": "Canberra",
    "building_type": "commercial",
    "levels": 18,
    "height": 60.0,
    "address": null
   },
   "geometry": {
    "type": "Polygon",
    "coordinates": [
     [
      [
       77.5964242,
       12.9717853
      ],
      [
       77.5965581,
       12.9717271
      ],
      [
       77.5965095,
       12.9716208
      ],
      [
       77.5966978,
       12.9715375
      ],
      [
       77.5966095,
       12.9713473
      ],
      [
       77.5963562,
       12.9714591
      ],
      [
       77.596322,
       12.9713855
      ],
      [
       77.5959732,
       12.9715372
      ],
      [
       77.5960081,
       12.9716115
      ],
      [
       77.596092,
       12.9718009
      ],
      [
       77.5963759,
       12.9716799
      ],
      [
       77.5964242,
       12.9717853
      ]
     ]
    ]
   }
  },
  {
   "type": "Feature",
   "properties": {
    "osm_id": "way/1182861380",
    "name": null,
    "building_type": "mixed",
    "levels": 19,
    "height": 79.05,
    "address": null
   },
   "geometry": {
    "type": "Polygon",
    "coordinates": [
     [
      [
       77.6074626,
       12.9714643
      ],
      [
       77.6074931,
       12.9715524
      ],
      [
       77.6074767,
       12.9716038
      ],
      [
       77.6076368,
       12.9716674
      ],
      [
       77.607609,
       12.9717339
      ],
      [
       77.6076073,
       12.9717332
      ],
      [
       77.6075407,
       12.9718915
      ],
      [
       77.6075422,
       12.9718922
      ],
      [
       77.6075002,
       12.9719921
      ],
      [
       77.6073749,
       12.9719157
      ],
      [
       77.6074088,
       12.971826
      ],
      [
       77.6074102,
       12.9718128
      ],
      [
       77.6074068,
       12.9718
      ],
      [
       77.6074001,
       12.9717903
      ],
      [
       77.6073907,
       12.971783
      ],
      [
       77.6072671,
       12.9717337
      ],
      [
       77.6072423,
       12.9715381
      ],
      [
       77.6074626,
       12.9714643
      ]
     ]
    ]
   }
  },
  {
   "type": "Feature",
   "properties": {
    "osm_id": "way/1235995419",
    "name": null,
    "building_type": "residential",
    "levels": 14,
    "height": null,
    "address": null
   },
   "geometry": {
    "type": "Polygon",
    "coordinates": [
     [
      [
       77.6181114,
       12.9892428
      ],
      [
       77.6181431,
       12.9892253
      ],
      [
       77.6181616,
       12.989257
      ],
      [
       77.618219,
       12.9892253
      ],
      [
       77.618234,
       12.9892511
      ],
      [
       77.618328,
       12.9891992
      ],
      [
       77.6183391,
       12.9892183
      ],
      [
       77.6184607,
       12.9891511
      ],
      [
       77.61839,
       12.9890296
      ],
      [
       77.6180853,
       12.989198
      ],
      [
       77.6181114,
       12.9892428
      ]
     ]
    ]
   }
  },
  {
   "type": "Feature",
   "properties": {
    "osm_id": "way/1240555815",
    "name": null,
    "building_type": "commercial",
    "levels": 15,
    "height": 59.0,
    "address": null
   },
   "geometry": {
    "type": "Polygon",
    "coordinates": [
     [
      [
       77.596423,
       12.9821595
      ],
      [
       77.5964136,
       12.9821297
      ],
      [
       77.5964067,
       12.982108
      ],
      [
       77.5961926,
       12.9821737
      ],
      [
       77.596036,
       12.9822218
      ],
      [
       77.5960415,
       12.9822389
      ],
      [
       77.5960526,
       12.9822732
      ],
      [
       77.5962086,
       12.9822253
      ],
      [
       77.596423,
       12.9821595
      ]
     ]
    ]
   }
  },
  {
   "type": "Feature",
   "properties": {
    "osm_id": "way/1240555816",
    "name": null,
    "building_type": "commercial",
    "levels": 15,
    "height": 59.0,
    "address": null
   },
   "geometry": {
    "type": "Polygon",
    "coordinates": [
     [
      [
       77.596423,
       12.9821595
      ],
      [
       77.5962086,
       12.9822253
      ],
      [
       77.5960526,
       12.9822732
      ],
      [
       77.5961264,
       12.9824947
      ],
      [
       77.5963122,
       12.9824362
      ],
      [
       77.5964928,
       12.9823794
      ],
      [
       77.596423,
       12.9821595
      ]
     ]
    ]
   }
  },
  {
   "type": "Feature",
   "properties": {
    "osm_id": "way/1244161065",
    "name": null,
    "building_type": "commercial",
    "levels": 14,
    "height": 61.5,
    "address": null
   },
   "geometry": {
    "type": "Polygon",
    "coordinates": [
     [
      [
       77.5861076,
       12.9901444
      ],
      [
       77.5860685,
       12.9903945
      ],
      [
       77.5860747,
       12.990404
      ],
      [
       77.5860837,
       12.9904112
      ],
      [
       77.5860928,
       12.9904148
      ],
      [
       77.5861026,
       12.9904159
      ],
      [
       77.5867459,
       12.9903671
      ],
      [
       77.5867582,
       12.9903632
      ],
      [
       77.5867688,
       12.9903559
      ],
      [
       77.5867757,
       12.9903478
      ],
      [
       77.5867804,
       12.9903383
      ],
      [
       77.5867902,
       12.9902621
      ],
      [
       77.5867965,
       12.9901165
      ],
      [
       77.5867887,
       12.9900992
      ],
      [
       77.5867786,
       12.9900892
      ],
      [
       77.5867657,
       12.9900827
      ],
      [
       77.5866461,
       12.9900913
      ],
      [
       77.5866301,
       12.9900976
      ],
      [
       77.58662,
       12.9901061
      ],
      [
       77.5865821,
       12.9901607
      ],
      [
       77.5865674,
       12.9901744
      ],
      [
       77.586558,
       12.990179
      ],
      [
       77.5865479,
       12.9901817
      ],
      [
       77.5862526,
       12.9902044
      ],
      [
       77.5862434,
       12.9901093
      ],
      [
       77.586128,
       12.9901192
      ],
      [
       77.5861211,
       12.9901219
      ],
      [
       77.5861152,
       12.9901264
      ],
      [
       77.5861096,
       12.9901347
      ],
      [
       77.5861076,
       12.9901444
      ]
     ]
    ]
   }
  },
  {
   "type": "Feature",
   "properties": {
    "osm_id": "way/1285445368",
    "name": null,
    "building_type": "mixed",
    "levels": 28,
    "height": null,
    "address": null
   },
   "geometry": {
    "type": "Polygon",
    "coordinates": [
     [
      [
       77.594499,
       12.9637877
      ],
      [
       77.5946867,
       12.9636544
      ],
      [
       77.5946733,
       12.9634728
      ],
      [
       77.5948735,
       12.9634587
      ],
      [
       77.5948869,
       12.9636404
      ],
      [
       77.5950747,
       12.9637292
      ],
      [
       77.5949814,
       12.9639167
      ],
      [
       77.59481,
       12.9638356
      ],
      [
       77.5946197,
       12.9639613
      ],
      [
       77.594499,
       12.9637877
      ]
     ]
    ]
   }
  },
  {
   "type": "Feature",
   "properties": {
    "osm_id": "way/1298161074",
    "name": "Tower T3",
    "building_type": "mixed",
    "levels": 18,
    "height": 74.42,
    "address": null
   },
   "geometry": {
    "type": "Polygon",
    "coordinates": [
     [
      [
       77.5981508,
       12.9916641
      ],
      [
       77.5982648,
       12.992226
      ],
      [
       77.5984941,
       12.9922326
      ],
      [
       77.5985084,
       12.99223
      ],
      [
       77.5985216,
       12.9922241
      ],
      [
       77.5985333,
       12.9922146
      ],
      [
       77.5985421,
       12.9922025
      ],
      [
       77.598761,
       12.9917582
      ],
      [
       77.5987642,
       12.9917372
      ],
      [
       77.5987597,
       12.9917164
      ],
      [
       77.5987507,
       12.9917017
      ],
      [
       77.5987379,
       12.99169
      ],
      [
       77.5987221,
       12.9916824
      ],
      [
       77.5981508,
       12.9916641
      ]
     ]
    ]
   }
  },
  {
   "type": "Feature",
   "properties": {
    "osm_id": "way/1298161075",
    "name": "Tower T2",
    "building_type": "mixed",
    "levels": 18,
    "height": 74.42,
    "address": null
   },
   "geometry": {
    "type": "Polygon",
    "coordinates": [
     [
      [
       77.5968043,
       12.9926612
      ],
      [
       77.5971182,
       12.9922587
      ],
      [
       77.5978504,
       12.9922822
      ],
      [
       77.5978385,
       12.9926351
      ],
      [
       77.5973366,
       12.992619
      ],
      [
       77.5971249,
       12.9928938
      ],
      [
       77.5968043,
       12.9926612
      ]
     ]
    ]
   }
  },
  {
   "type": "Feature",
   "properties": {
    "osm_id": "way/1298161076",
    "name": "Tower T1",
    "building_type": "mixed",
    "levels": 18,
    "height": 74.42,
    "address": null
   },
   "geometry": {
    "type": "Polygon",
    "coordinates": [
     [
      [
       77.5961821,
       12.9934518
      ],
      [
       77.5966676,
       12.9928363
      ],
      [
       77.596983,
       12.9930725
      ],
      [
       77.5964975,
       12.993688
      ],
      [
       77.5964653,
       12.9937161
      ],
      [
       77.5964277,
       12.9937367
      ],
      [
       77.5963864,
       12.993749
      ],
      [
       77.5963433,
       12.9937524
      ],
      [
       77.5963005,
       12.9937466
      ],
      [
       77.59626,
       12.993732
      ],
      [
       77.5962237,
       12.9937092
      ],
      [
       77.5961941,
       12.9936804
      ],
      [
       77.5961713,
       12.9936463
      ],
      [
       77.5961564,
       12.9936082
      ],
      [
       77.5961499,
       12.993568
      ],
      [
       77.5961521,
       12.9935273
      ],
      [
       77.596163,
       12.993488
      ],
      [
       77.5961821,
       12.9934518
      ]
     ]
    ]
   }
  },
  {
   "type": "Feature",
   "properties": {
    "osm_id": "way/1367294281",
    "name": null,
    "building_type": "mixed",
    "levels": 20,
    "height": 80.5,
    "address": null
   },
   "geometry": {
    "type": "Polygon",
    "coordinates": [
     [
      [
       77.6022325,
       12.9811979
      ],
      [
       77.6023753,
       12.9816599
      ],
      [
       77.602554,
       12.9816074
      ],
      [
       77.6024111,
       12.9811455
      ],
      [
       77.6022325,
       12.9811979
      ]
     ]
    ]
   }
  },
  {
   "type": "Feature",
   "properties": {
    "osm_id": "way/1381418986",
    "name": null,
    "building_type": "residential",
    "levels": 13,
    "height": null,
    "address": null
   },
   "geometry": {
    "type": "Polygon",
    "coordinates": [
     [
      [
       77.6148389,
       12.9847257
      ],
      [
       77.6150206,
       12.9850119
      ],
      [
       77.6151889,
       12.9848982
      ],
      [
       77.6152077,
       12.9847362
      ],
      [
       77.6148389,
       12.9847257
      ]
     ]
    ]
   }
  },
  {
   "type": "Feature",
   "properties": {
    "osm_id": "way/1382445530",
    "name": null,
    "building_type": "commercial",
    "levels": 13,
    "height": null,
    "address": null
   },
   "geometry": {
    "type": "Polygon",
    "coordinates": [
     [
      [
       77.614871,
       12.9726518
      ],
      [
       77.6146853,
       12.9726955
      ],
      [
       77.614687,
       12.9727154
      ],
      [
       77.6146819,
       12.9727348
      ],
      [
       77.6146707,
       12.9727514
      ],
      [
       77.6146545,
       12.9727635
      ],
      [
       77.614684,
       12.9729033
      ],
      [
       77.6147266,
       12.9728943
      ],
      [
       77.6147676,
       12.9728989
      ],
      [
       77.6148087,
       12.9728946
      ],
      [
       77.6148474,
       12.972882
      ],
      [
       77.6148823,
       12.9728615
      ],
      [
       77.6149119,
       12.9728341
      ],
      [
       77.614871,
       12.9726518
      ]
     ]
    ]
   }
  },
  {
   "type": "Feature",
   "properties": {
    "osm_id": "way/1459555724",
    "name": null,
    "building_type": "mixed",
    "levels": 18,
    "height": 80.0,
    "address": null
   },
   "geometry": {
    "type": "Polygon",
    "coordinates": [
     [
      [
       77.5955576,
       12.9852889
      ],
      [
       77.595893,
       12.9851734
      ],
      [
       77.5958006,
       12.9849185
      ],
      [
       77.5954652,
       12.985034
      ],
      [
       77.5955576,
       12.9852889
      ]
     ]
    ]
   }
  },
  {
   "type": "Feature",
   "properties": {
    "osm_id": "way/1552955268",
    "name": null,
    "building_type": "mixed",
    "levels": 13,
    "height": 54.45,
    "address": null
   },
   "geometry": {
    "type": "Polygon",
    "coordinates": [
     [
      [
       77.6171941,
       12.9643938
      ],
      [
       77.617173,
       12.9645333
      ],
      [
       77.6171599,
       12.9646738
      ],
      [
       77.6171551,
       12.9648148
      ],
      [
       77.6171579,
       12.9649468
      ],
      [
       77.617168,
       12.9650785
      ],
      [
       77.6171851,
       12.9652095
      ],
      [
       77.6171876,
       12.9652188
      ],
      [
       77.6171926,
       12.9652271
      ],
      [
       77.6172026,
       12.9652357
      ],
      [
       77.6172151,
       12.9652402
      ],
      [
       77.6174626,
       12.9652169
      ],
      [
       77.6174785,
       12.9652113
      ],
      [
       77.6174926,
       12.9652022
      ],
      [
       77.6175051,
       12.9651889
      ],
      [
       77.6175136,
       12.965173
      ],
      [
       77.6176006,
       12.9649449
      ],
      [
       77.6176058,
       12.9649271
      ],
      [
       77.6176037,
       12.9649086
      ],
      [
       77.6175946,
       12.9648923
      ],
      [
       77.6175772,
       12.9648792
      ],
      [
       77.6175556,
       12.9648748
      ],
      [
       77.6175404,
       12.9648805
      ],
      [
       77.617524,
       12.9648809
      ],
      [
       77.6175085,
       12.9648759
      ],
      [
       77.6174956,
       12.964866
      ],
      [
       77.6174865,
       12.964851
      ],
      [
       77.6174836,
       12.9648338
      ],
      [
       77.6174926,
       12.9644917
      ],
      [
       77.6174973,
       12.9644803
      ],
      [
       77.6174973,
       12.964468
      ],
      [
       77.6174926,
       12.9644566
      ],
      [
       77.6174823,
       12.9644467
      ],
      [
       77.6174686,
       12.964442
      ],
      [
       77.6172406,
       12.9643718
      ],
      [
       77.6172196,
       12.9643777
      ],
      [
       77.6171941,
       12.9643938
      ]
     ]
    ]
   }
  },
  {
   "type": "Feature",
   "properties": {
    "osm_id": "way/173435206",
    "name": null,
    "building_type": "commercial",
    "levels": 12,
    "height": null,
    "address": null
   },
   "geometry": {
    "type": "Polygon",
    "coordinates": [
     [
      [
       77.61567,
       12.9738041
      ],
      [
       77.6159371,
       12.9737674
      ],
      [
       77.6159638,
       12.9739522
      ],
      [
       77.6157528,
       12.9739812
      ],
      [
       77.6158009,
       12.9743139
      ],
      [
       77.6157272,
       12.974324
      ],
      [
       77.6157553,
       12.9745182
      ],
      [
       77.6157448,
       12.9745196
      ],
      [
       77.6157463,
       12.9745305
      ],
      [
       77.6156114,
       12.974549
      ],
      [
       77.6156098,
       12.9745382
      ],
      [
       77.6155925,
       12.9745405
      ],
      [
       77.6155626,
       12.9743336
      ],
      [
       77.6155915,
       12.9743285
      ],
      [
       77.615628,
       12.974269
      ],
      [
       77.6155809,
       12.9739735
      ],
      [
       77.6156764,
       12.9738739
      ],
      [
       77.61567,
       12.9738041
      ]
     ]
    ]
   }
  },
  {
   "type": "Feature",
   "properties": {
    "osm_id": "way/296169221",
    "name": "Embassy Heights",
    "building_type": "commercial",
    "levels": 12,
    "height": null,
    "address": "Magrath Road"
   },
   "geometry": {
    "type": "Polygon",
    "coordinates": [
     [
      [
       77.6126317,
       12.9693498
      ],
      [
       77.6126813,
       12.9693302
      ],
      [
       77.6126921,
       12.9693433
      ],
      [
       77.6127269,
       12.9693302
      ],
      [
       77.6127162,
       12.9693132
      ],
      [
       77.612743,
       12.9693054
      ],
      [
       77.6127833,
       12.9692583
      ],
      [
       77.6127712,
       12.9692309
      ],
      [
       77.6127994,
       12.9692257
      ],
      [
       77.6128919,
       12.9691865
      ],
      [
       77.6129321,
       12.9691773
      ],
      [
       77.6129442,
       12.9692061
      ],
      [
       77.6129965,
       12.9692283
      ],
      [
       77.6130139,
       12.9692139
      ],
      [
       77.6130273,
       12.9692479
      ],
      [
       77.6130555,
       12.9692649
      ],
      [
       77.6130768,
       12.9692784
      ],
      [
       77.6130851,
       12.9692634
      ],
      [
       77.613175,
       12.969328
      ],
      [
       77.6131226,
       12.9693916
      ],
      [
       77.6131454,
       12.9694152
      ],
      [
       77.6130555,
       12.9694648
      ],
      [
       77.6130381,
       12.9693995
      ],
      [
       77.6130206,
       12.9694361
      ],
      [
       77.6130287,
       12.9694557
      ],
      [
       77.6130046,
       12.9694792
      ],
      [
       77.6129898,
       12.9694544
      ],
      [
       77.6128946,
       12.969491
      ],
      [
       77.6128986,
       12.9695053
      ],
      [
       77.6128651,
       12.9695197
      ],
      [
       77.6128543,
       12.9694897
      ],
      [
       77.6127886,
       12.9694674
      ],
      [
       77.6127471,
       12.9694714
      ],
      [
       77.6127497,
       12.9695197
      ],
      [
       77.6126867,
       12.9695393
      ],
      [
       77.6126223,
       12.9694897
      ],
      [
       77.612672,
       12.96947
      ],
      [
       77.6126532,
       12.9694152
      ],
      [
       77.6126129,
       12.9694321
      ],
      [
       77.6126062,
       12.9693969
      ],
      [
       77.6126317,
       12.9693498
      ]
     ]
    ]
   }
  },
  {
   "type": "Feature",
   "properties": {
    "osm_id": "way/325773309",
    "name": "Prestige Khoday Tower",
    "building_type": "commercial",
    "levels": 15,
    "height": null,
    "address": null
   },
   "geometry": {
    "type": "Polygon",
    "coordinates": [
     [
      [
       77.5940227,
       12.9829657
      ],
      [
       77.593867,
       12.9824901
      ],
      [
       77.5939592,
       12.9824615
      ],
      [
       77.5939803,
       12.9825258
      ],
      [
       77.5940325,
       12.9825096
      ],
      [
       77.5941671,
       12.9829208
      ],
      [
       77.5940227,
       12.9829657
      ]
     ]
    ]
   }
  },
  {
   "type": "Feature",
   "properties": {
    "osm_id": "way/327534043",
    "name": "Barton Centre",
    "building_type": "commercial",
    "levels": 14,
    "height": null,
    "address": "84, Mahatma Gandhi Road"
   },
   "geometry": {
    "type": "Polygon",
    "coordinates": [
     [
      [
       77.6052226,
       12.9753482
      ],
      [
       77.605238,
       12.9753442
      ],
      [
       77.6052733,
       12.975335
      ],
      [
       77.6052261,
       12.9751628
      ],
      [
       77.6051933,
       12.9751714
      ],
      [
       77.6051674,
       12.9751781
      ],
      [
       77.6051461,
       12.9751004
      ],
      [
       77.6049717,
       12.9751458
      ],
      [
       77.6049891,
       12.9752093
      ],
      [
       77.6049651,
       12.9752155
      ],
      [
       77.6048431,
       12.9752473
      ],
      [
       77.6049001,
       12.9754555
      ],
      [
       77.6049164,
       12.9754513
      ],
      [
       77.6049233,
       12.9754766
      ],
      [
       77.6049839,
       12.9754609
      ],
      [
       77.6050029,
       12.9755304
      ],
      [
       77.6050562,
       12.9755165
      ],
      [
       77.6052241,
       12.9754729
      ],
      [
       77.6052048,
       12.9754024
      ],
      [
       77.6052352,
       12.9753944
      ],
      [
       77.6052226,
       12.9753482
      ]
     ]
    ]
   }
  },
  {
   "type": "Feature",
   "properties": {
    "osm_id": "way/327551783",
    "name": null,
    "building_type": "commercial",
    "levels": 13,
    "height": null,
    "address": null
   },
   "geometry": {
    "type": "Polygon",
    "coordinates": [
     [
      [
       77.5974008,
       12.9758783
      ],
      [
       77.5974328,
       12.9758681
      ],
      [
       77.5974522,
       12.9759262
      ],
      [
       77.5975,
       12.975911
      ],
      [
       77.5975143,
       12.9759537
      ],
      [
       77.5976069,
       12.9759243
      ],
      [
       77.5975891,
       12.9758712
      ],
      [
       77.597634,
       12.9758569
      ],
      [
       77.597571,
       12.9756689
      ],
      [
       77.5975359,
       12.9756801
      ],
      [
       77.5975161,
       12.9756211
      ],
      [
       77.5974821,
       12.975632
      ],
      [
       77.5974669,
       12.9755865
      ],
      [
       77.597414,
       12.9756034
      ],
      [
       77.5973878,
       12.9755252
      ],
      [
       77.5973668,
       12.9755319
      ],
      [
       77.5973558,
       12.9754992
      ],
      [
       77.5973311,
       12.9755071
      ],
      [
       77.5973211,
       12.975477
      ],
      [
       77.5973018,
       12.9754831
      ],
      [
       77.5972924,
       12.975455
      ],
      [
       77.5972326,
       12.975474
      ],
      [
       77.5972524,
       12.975533
      ],
      [
       77.5972402,
       12.9755368
      ],
      [
       77.5973499,
       12.9758641
      ],
      [
       77.5973916,
       12.9758508
      ],
      [
       77.5974008,
       12.9758783
      ]
     ]
    ]
   }
  },
  {
   "type": "Feature",
   "properties": {
    "osm_id": "way/331382770",
    "name": "Darby Telematics India Pvt. Ltd.",
    "building_type": "commercial",
    "levels": 18,
    "height": null,
    "address": "64/2, 2nd Cross Residency Road"
   },
   "geometry": {
    "type": "Polygon",
    "coordinates": [
     [
      [
       77.6089333,
       12.9724835
      ],
      [
       77.6089464,
       12.9723362
      ],
      [
       77.6091009,
       12.9723492
      ],
      [
       77.6090878,
       12.9724966
      ],
      [
       77.6089333,
       12.9724835
      ]
     ]
    ]
   }
  },
  {
   "type": "Feature",
   "properties": {
    "osm_id": "way/331538351",
    "name": "HMG Ambassador",
    "building_type": "commercial",
    "levels": 13,
    "height": null,
    "address": "137, FM Cariappa Road (Residency Road)"
   },
   "geometry": {
    "type": "Polygon",
    "coordinates": [
     [
      [
       77.5980595,
       12.9652866
      ],
      [
       77.5977719,
       12.965635
      ],
      [
       77.5979076,
       12.9657414
      ],
      [
       77.5981952,
       12.965393
      ],
      [
       77.5980595,
       12.9652866
      ]
     ]
    ]
   }
  },
  {
   "type": "Feature",
   "properties": {
    "osm_id": "way/343885073",
    "name": null,
    "building_type": "residential",
    "levels": 18,
    "height": null,
    "address": null
   },
   "geometry": {
    "type": "Polygon",
    "coordinates": [
     [
      [
       77.6260187,
       13.0000174
      ],
      [
       77.6266295,
       12.9995043
      ],
      [
       77.6265704,
       12.9994376
      ],
      [
       77.626505,
       12.9994925
      ],
      [
       77.6264582,
       12.9994396
      ],
      [
       77.6264928,
       12.9994106
      ],
      [
       77.6264317,
       12.9993417
      ],
      [
       77.6258868,
       12.9998041
      ],
      [
       77.6259496,
       12.9998762
      ],
      [
       77.6259893,
       12.9998527
      ],
      [
       77.6260221,
       12.9998897
      ],
      [
       77.6259553,
       12.9999458
      ],
      [
       77.6260187,
       13.0000174
      ]
     ]
    ]
   }
  },
  {
   "type": "Feature",
   "properties": {
    "osm_id": "way/345892720",
    "name": null,
    "building_type": "commercial",
    "levels": 13,
    "height": null,
    "address": null
   },
   "geometry": {
    "type": "Polygon",
    "coordinates": [
     [
      [
       77.586042,
       12.9619647
      ],
      [
       77.5862183,
       12.961946
      ],
      [
       77.5861662,
       12.9614805
      ],
      [
       77.5859899,
       12.9614992
      ],
      [
       77.586042,
       12.9619647
      ]
     ]
    ]
   }
  },
  {
   "type": "Feature",
   "properties": {
    "osm_id": "way/345935893",
    "name": null,
    "building_type": "residential",
    "levels": 14,
    "height": null,
    "address": null
   },
   "geometry": {
    "type": "Polygon",
    "coordinates": [
     [
      [
       77.5983353,
       12.9817755
      ],
      [
       77.5984858,
       12.9817317
      ],
      [
       77.5983956,
       12.9814374
      ],
      [
       77.5982451,
       12.9814813
      ],
      [
       77.5983353,
       12.9817755
      ]
     ]
    ]
   }
  },
  {
   "type": "Feature",
   "properties": {
    "osm_id": "way/345935991",
    "name": null,
    "building_type": "residential",
    "levels": 19,
    "height": null,
    "address": null
   },
   "geometry": {
    "type": "Polygon",
    "coordinates": [
     [
      [
       77.610345,
       12.9955757
      ],
      [
       77.6105019,
       12.9954805
      ],
      [
       77.6103963,
       12.9953153
      ],
      [
       77.6102394,
       12.9954104
      ],
      [
       77.610345,
       12.9955757
      ]
     ]
    ]
   }
  },
  {
   "type": "Feature",
   "properties": {
    "osm_id": "way/346551809",
    "name": null,
    "building_type": "residential",
    "levels": 14,
    "height": null,
    "address": null
   },
   "geometry": {
    "type": "Polygon",
    "coordinates": [
     [
      [
       77.5862753,
       12.9906829
      ],
      [
       77.5861686,
       12.9907612
      ],
      [
       77.5862504,
       12.990867
      ],
      [
       77.5862747,
       12.9908461
      ],
      [
       77.5862814,
       12.9908534
      ],
      [
       77.5863386,
       12.9908042
      ],
      [
       77.586332,
       12.9907968
      ],
      [
       77.5863594,
       12.9907625
      ],
      [
       77.5864378,
       12.9907962
      ],
      [
       77.5864328,
       12.9908074
      ],
      [
       77.586464,
       12.9908208
      ],
      [
       77.5864691,
       12.9908096
      ],
      [
       77.5865135,
       12.9908287
      ],
      [
       77.5865456,
       12.9906981
      ],
      [
       77.5863966,
       12.9906633
      ],
      [
       77.586384,
       12.990563
      ],
      [
       77.5862621,
       12.9905775
      ],
      [
       77.5862753,
       12.9906829
      ]
     ]
    ]
   }
  },
  {
   "type": "Feature",
   "properties": {
    "osm_id": "way/346551946",
    "name": null,
    "building_type": "commercial",
    "levels": 18,
    "height": null,
    "address": "56-6B, Palace Road"
   },
   "geometry": {
    "type": "Polygon",
    "coordinates": [
     [
      [
       77.5880819,
       12.9923435
      ],
      [
       77.588412,
       12.9922994
      ],
      [
       77.588396,
       12.9921851
      ],
      [
       77.5883602,
       12.9921898
      ],
      [
       77.5882967,
       12.9917377
      ],
      [
       77.5883354,
       12.9917325
      ],
      [
       77.5883132,
       12.9915749
      ],
      [
       77.5879801,
       12.9916193
      ],
      [
       77.5880819,
       12.9923435
      ]
     ]
    ]
   }
  },
  {
   "type": "Feature",
   "properties": {
    "osm_id": "way/346773103",
    "name": "Carnation",
    "building_type": "residential",
    "levels": 12,
    "height": null,
    "address": null
   },
   "geometry": {
    "type": "Polygon",
    "coordinates": [
     [
      [
       77.5956092,
       12.9882469
      ],
      [
       77.5957338,
       12.9883362
      ],
      [
       77.5959084,
       12.9881051
      ],
      [
       77.5957838,
       12.9880158
      ],
      [
       77.5956092,
       12.9882469
      ]
     ]
    ]
   }
  },
  {
   "type": "Feature",
   "properties": {
    "osm_id": "way/346773181",
    "name": "Tulip",
    "building_type": "residential",
    "levels": 12,
    "height": null,
    "address": null
   },
   "geometry": {
    "type": "Polygon",
    "coordinates": [
     [
      [
       77.5956691,
       12.9884409
      ],
      [
       77.5959072,
       12.9886187
      ],
      [
       77.595996,
       12.9885057
      ],
      [
       77.5957579,
       12.9883279
      ],
      [
       77.5956691,
       12.9884409
      ]
     ]
    ]
   }
  },
  {
   "type": "Feature",
   "properties": {
    "osm_id": "way/369295560",
    "name": "Prestige Meridian 1",
    "building_type": "commercial",
    "levels": 16,
    "height": null,
    "address": null
   },
   "geometry": {
    "type": "Polygon",
    "coordinates": [
     [
      [
       77.6127833,
       12.9735532
      ],
      [
       77.6127972,
       12.9736085
      ],
      [
       77.6128475,
       12.9736361
      ],
      [
       77.6127651,
       12.9737784
      ],
      [
       77.6126115,
       12.9736939
      ],
      [
       77.6126468,
       12.9736331
      ],
      [
       77.6126354,
       12.9735882
      ],
      [
       77.6125787,
       12.9735569
      ],
      [
       77.6126127,
       12.9734982
      ],
      [
       77.6126034,
       12.9734614
      ],
      [
       77.6125239,
       12.9734177
      ],
      [
       77.6126063,
       12.9732754
      ],
      [
       77.6127599,
       12.9733598
      ],
      [
       77.6127422,
       12.9733905
      ],
      [
       77.6127623,
       12.9734703
      ],
      [
       77.6128146,
       12.9734991
      ],
      [
       77.6127833,
       12.9735532
      ]
     ]
    ]
   }
  },
  {
   "type": "Feature",
   "properties": {
    "osm_id": "way/369295561",
    "name": "Prestige Meridian 2",
    "building_type": "commercial",
    "levels": 16,
    "height": null,
    "address": null
   },
   "geometry": {
    "type": "Polygon",
    "coordinates": [
     [
      [
       77.612383,
       12.9734714
      ],
      [
       77.6124108,
       12.9734273
      ],
      [
       77.6122923,
       12.9733562
      ],
      [
       77.6122203,
       12.9734701
      ],
      [
       77.6122683,
       12.9734988
      ],
      [
       77.6122937,
       12.9735902
      ],
      [
       77.6122624,
       12.9736398
      ],
      [
       77.6123165,
       12.9736723
      ],
      [
       77.6123273,
       12.973711
      ],
      [
       77.6122847,
       12.9737799
      ],
      [
       77.6124306,
       12.9738658
      ],
      [
       77.6125134,
       12.9737322
      ],
      [
       77.6124427,
       12.9736861
      ],
      [
       77.6124286,
       12.9736354
      ],
      [
       77.6124529,
       12.973597
      ],
      [
       77.6124109,
       12.9735718
      ],
      [
       77.612383,
       12.9734714
      ]
     ]
    ]
   }
  },
  {
   "type": "Feature",
   "properties": {
    "osm_id": "way/373431282",
    "name": "Concorde",
    "building_type": "commercial",
    "levels": 20,
    "height": 60.0,
    "address": null
   },
   "geometry": {
    "type": "Polygon",
    "coordinates": [
     [
      [
       77.5957922,
       12.971952
      ],
      [
       77.5958873,
       12.9719092
      ],
      [
       77.5958812,
       12.9718969
      ],
      [
       77.5958395,
       12.9718021
      ],
      [
       77.595855,
       12.9717601
      ],
      [
       77.5958147,
       12.9717508
      ],
      [
       77.5958219,
       12.971652
      ],
      [
       77.5957336,
       12.971695
      ],
      [
       77.5956153,
       12.9716526
      ],
      [
       77.5955691,
       12.9717529
      ],
      [
       77.5954568,
       12.9718011
      ],
      [
       77.5954807,
       12.9718527
      ],
      [
       77.5954642,
       12.97186
      ],
      [
       77.595534,
       12.9720105
      ],
      [
       77.5955645,
       12.9719971
      ],
      [
       77.5955861,
       12.9720435
      ],
      [
       77.595641,
       12.9720198
      ],
      [
       77.5957345,
       12.9719782
      ],
      [
       77.5957767,
       12.9719868
      ],
      [
       77.5957922,
       12.971952
      ]
     ]
    ]
   }
  },
  {
   "type": "Feature",
   "properties": {
    "osm_id": "way/377247413",
    "name": "Du Park Trinity",
    "building_type": "commercial",
    "levels": 13,
    "height": null,
    "address": "17, Trinity Church Road"
   },
   "geometry": {
    "type": "Polygon",
    "coordinates": [
     [
      [
       77.6189697,
       12.9717392
      ],
      [
       77.6189985,
       12.9717451
      ],
      [
       77.6190165,
       12.9717638
      ],
      [
       77.6190291,
       12.971803
      ],
      [
       77.6190327,
       12.9718386
      ],
      [
       77.6190195,
       12.9718702
      ],
      [
       77.6193136,
       12.9718299
      ],
      [
       77.6193106,
       12.9717638
      ],
      [
       77.6193082,
       12.9717094
      ],
      [
       77.619292,
       12.9716749
      ],
      [
       77.619277,
       12.9716375
      ],
      [
       77.6192422,
       12.9715907
      ],
      [
       77.6192032,
       12.9715538
      ],
      [
       77.6191474,
       12.9715088
      ],
      [
       77.6189697,
       12.9717392
      ]
     ]
    ]
   }
  },
  {
   "type": "Feature",
   "properties": {
    "osm_id": "way/378452335",
    "name": null,
    "building_type": "commercial",
    "levels": 22,
    "height": null,
    "address": null
   },
   "geometry": {
    "type": "Polygon",
    "coordinates": [
     [
      [
       77.5962871,
       12.9656002
      ],
      [
       77.5965225,
       12.9656711
      ],
      [
       77.5965412,
       12.9654763
      ],
      [
       77.5965659,
       12.965259
      ],
      [
       77.5964271,
       12.9652118
      ],
      [
       77.5963417,
       12.9654502
      ],
      [
       77.5962871,
       12.9656002
      ]
     ]
    ]
   }
  },
  {
   "type": "Feature",
   "properties": {
    "osm_id": "way/411044705",
    "name": "Brigade Towers",
    "building_type": "commercial",
    "levels": 17,
    "height": null,
    "address": null
   },
   "geometry": {
    "type": "Polygon",
    "coordinates": [
     [
      [
       77.6061423,
       12.9672682
      ],
      [
       77.6062475,
       12.9672963
      ],
      [
       77.6062819,
       12.9672807
      ],
      [
       77.6063101,
       12.9671561
      ],
      [
       77.606291,
       12.9671304
      ],
      [
       77.6061861,
       12.9671019
      ],
      [
       77.6061695,
       12.967117
      ],
      [
       77.6061566,
       12.9671649
      ],
      [
       77.6060907,
       12.9671481
      ],
      [
       77.6060868,
       12.9671626
      ],
      [
       77.6060017,
       12.9671409
      ],
      [
       77.6059799,
       12.96715
      ],
      [
       77.6059448,
       12.9672944
      ],
      [
       77.6059582,
       12.967315
      ],
      [
       77.6060404,
       12.9673372
      ],
      [
       77.6060503,
       12.9673025
      ],
      [
       77.6061126,
       12.9673193
      ],
      [
       77.6061259,
       12.967316
      ],
      [
       77.6061322,
       12.9673077
      ],
      [
       77.6061423,
       12.9672682
      ]
     ]
    ]
   }
  },
  {
   "type": "Feature",
   "properties": {
    "osm_id": "way/52060144",
    "name": null,
    "building_type": "commercial",
    "levels": 18,
    "height": null,
    "address": null
   },
   "geometry": {
    "type": "Polygon",
    "coordinates": [
     [
      [
       77.596935,
       12.9747289
      ],
      [
       77.5970466,
       12.9745239
      ],
      [
       77.597219,
       12.974613
      ],
      [
       77.5971074,
       12.9748181
      ],
      [
       77.596935,
       12.9747289
      ]
     ]
    ]
   }
  },
  {
   "type": "Feature",
   "properties": {
    "osm_id": "way/688353429",
    "name": null,
    "building_type": "residential",
    "levels": 24,
    "height": null,
    "address": null
   },
   "geometry": {
    "type": "Polygon",
    "coordinates": [
     [
      [
       77.6211988,
       12.9760226
      ],
      [
       77.6213552,
       12.9760774
      ],
      [
       77.6213522,
       12.9760876
      ],
      [
       77.6213692,
       12.9760952
      ],
      [
       77.6213627,
       12.9761072
      ],
      [
       77.62141,
       12.9761214
      ],
      [
       77.621404,
       12.9761404
      ],
      [
       77.6214526,
       12.9761572
      ],
      [
       77.621456,
       12.9761763
      ],
      [
       77.6214551,
       12.9762005
      ],
      [
       77.6214525,
       12.976227
      ],
      [
       77.6214219,
       12.9762473
      ],
      [
       77.6213845,
       12.9762361
      ],
      [
       77.6213774,
       12.9762504
      ],
      [
       77.6213107,
       12.9762362
      ],
      [
       77.6212991,
       12.9762637
      ],
      [
       77.6211362,
       12.9762182
      ],
      [
       77.6211113,
       12.9761542
      ],
      [
       77.6211137,
       12.9761199
      ],
      [
       77.6211242,
       12.9760895
      ],
      [
       77.6211488,
       12.9760486
      ],
      [
       77.6211868,
       12.9760615
      ],
      [
       77.6211988,
       12.9760226
      ]
     ]
    ]
   }
  },
  {
   "type": "Feature",
   "properties": {
    "osm_id": "way/775169703",
    "name": "One Trade Tower",
    "building_type": "commercial",
    "levels": 24,
    "height": 115.0,
    "address": null
   },
   "geometry": {
    "type": "Polygon",
    "coordinates": [
     [
      [
       77.5876953,
       12.9856526
      ],
      [
       77.5873158,
       12.9856759
      ],
      [
       77.5873439,
       12.9860595
      ],
      [
       77.5877161,
       12.9860465
      ],
      [
       77.5876953,
       12.9856526
      ]
     ]
    ]
   }
  },
  {
   "type": "Feature",
   "properties": {
    "osm_id": "way/775444090",
    "name": null,
    "building_type": "residential",
    "levels": 22,
    "height": null,
    "address": null
   },
   "geometry": {
    "type": "Polygon",
    "coordinates": [
     [
      [
       77.6152422,
       12.992782
      ],
      [
       77.6155945,
       12.9926405
      ],
      [
       77.6155333,
       12.9924959
      ],
      [
       77.615181,
       12.9926374
      ],
      [
       77.6152422,
       12.992782
      ]
     ]
    ]
   }
  },
  {
   "type": "Feature",
   "properties": {
    "osm_id": "way/775444119",
    "name": null,
    "building_type": "residential",
    "levels": 21,
    "height": null,
    "address": null
   },
   "geometry": {
    "type": "Polygon",
    "coordinates": [
     [
      [
       77.6077201,
       12.995555
      ],
      [
       77.6076678,
       12.9955835
      ],
      [
       77.6077547,
       12.9957343
      ],
      [
       77.6078243,
       12.9956962
      ],
      [
       77.6077945,
       12.9956445
      ],
      [
       77.6078869,
       12.9955939
      ],
      [
       77.6077811,
       12.9954102
      ],
      [
       77.6076713,
       12.9954702
      ],
      [
       77.6077201,
       12.995555
      ]
     ]
    ]
   }
  },
  {
   "type": "Feature",
   "properties": {
    "osm_id": "way/781182589",
    "name": null,
    "building_type": "residential",
    "levels": 17,
    "height": null,
    "address": null
   },
   "geometry": {
    "type": "Polygon",
    "coordinates": [
     [
      [
       77.601615,
       12.9626618
      ],
      [
       77.6018641,
       12.9626541
      ],
      [
       77.6018698,
       12.9628291
      ],
      [
       77.6020866,
       12.9628224
      ],
      [
       77.6020794,
       12.9625979
      ],
      [
       77.6019181,
       12.9626029
      ],
      [
       77.6019165,
       12.9625538
      ],
      [
       77.601818,
       12.9625568
      ],
      [
       77.6018142,
       12.9624404
      ],
      [
       77.601608,
       12.9624467
      ],
      [
       77.601615,
       12.9626618
      ]
     ]
    ]
   }
  },
  {
   "type": "Feature",
   "properties": {
    "osm_id": "way/782014089",
    "name": null,
    "building_type": "residential",
    "levels": 24,
    "height": null,
    "address": null
   },
   "geometry": {
    "type": "Polygon",
    "coordinates": [
     [
      [
       77.5955681,
       12.9888643
      ],
      [
       77.5956635,
       12.988772
      ],
      [
       77.5953953,
       12.9885089
      ],
      [
       77.5952999,
       12.9886012
      ],
      [
       77.5955681,
       12.9888643
      ]
     ]
    ]
   }
  },
  {
   "type": "Feature",
   "properties": {
    "osm_id": "way/999665470",
    "name": "Vayudooth Chambers",
    "building_type": "commercial",
    "levels": 15,
    "height": null,
    "address": null
   },
   "geometry": {
    "type": "Polygon",
    "coordinates": [
     [
      [
       77.6192249,
       12.9722852
      ],
      [
       77.6193014,
       12.972246
      ],
      [
       77.6193403,
       12.9721989
      ],
      [
       77.6193818,
       12.9720944
      ],
      [
       77.6193912,
       12.972012
      ],
      [
       77.6193684,
       12.9719271
      ],
      [
       77.6192598,
       12.9719872
      ],
      [
       77.6192893,
       12.9720486
      ],
      [
       77.6192826,
       12.9720892
      ],
      [
       77.6192504,
       12.9721244
      ],
      [
       77.6191847,
       12.9721623
      ],
      [
       77.6192249,
       12.9722852
      ]
     ]
    ]
   }
  }
 ]
}